CCSDS_OMM_VERS = 2.0
CREATION_DATE  = 
ORIGINATOR     = 

OBJECT_NAME    = COSMOS 2242
OBJECT_ID      = 1993-024A
CENTER_NAME    = EARTH
REF_FRAME      = TEME
TIME_SYSTEM    = UTC
MEAN_ELEMENT_THEORY = SGP/SGP4

EPOCH          = 2026-03-12T01:01:50.531808
MEAN_MOTION    = 14.96558951
ECCENTRICITY   = .0015061
INCLINATION    = 82.5156
RA_OF_ASC_NODE = 264.4650
ARG_OF_PERICENTER = 300.3132
MEAN_ANOMALY   = 59.6600

EPHEMERIS_TYPE = 0
CLASSIFICATION_TYPE = U
NORAD_CAT_ID   = 22626
ELEMENT_SET_NO = 999
REV_AT_EPOCH   = 78074
BSTAR          = .14986E-3
MEAN_MOTION_DOT = .1734E-4
MEAN_MOTION_DDOT = 0

CCSDS_OMM_VERS = 2.0
CREATION_DATE  = 
ORIGINATOR     = 

OBJECT_NAME    = SL-16 R/B
OBJECT_ID      = 1993-059B
CENTER_NAME    = EARTH
REF_FRAME      = TEME
TIME_SYSTEM    = UTC
MEAN_ELEMENT_THEORY = SGP/SGP4

EPOCH          = 2026-03-12T03:48:56.824992
MEAN_MOTION    = 14.17231315
ECCENTRICITY   = .0018407
INCLINATION    = 70.9928
RA_OF_ASC_NODE = 5.9189
ARG_OF_PERICENTER = 212.9942
MEAN_ANOMALY   = 147.0035

EPHEMERIS_TYPE = 0
CLASSIFICATION_TYPE = U
NORAD_CAT_ID   = 22803
ELEMENT_SET_NO = 999
REV_AT_EPOCH   = 67988
BSTAR          = -.15903E-4
MEAN_MOTION_DOT = -.8E-6
MEAN_MOTION_DDOT = 0

CCSDS_OMM_VERS = 2.0
CREATION_DATE  = 
ORIGINATOR     = 

OBJECT_NAME    = ARIANE 40 R/B
OBJECT_ID      = 1993-061H
CENTER_NAME    = EARTH
REF_FRAME      = TEME
TIME_SYSTEM    = UTC
MEAN_ELEMENT_THEORY = SGP/SGP4

EPOCH          = 2026-03-12T03:25:24.103776
MEAN_MOTION    = 14.32862525
ECCENTRICITY   = .0009573
INCLINATION    = 98.4910
RA_OF_ASC_NODE = 139.9818
ARG_OF_PERICENTER = 276.9829
MEAN_ANOMALY   = 83.0267

EPHEMERIS_TYPE = 0
CLASSIFICATION_TYPE = U
NORAD_CAT_ID   = 22830
ELEMENT_SET_NO = 999
REV_AT_EPOCH   = 69445
BSTAR          = .10704E-3
MEAN_MOTION_DOT = .249E-5
MEAN_MOTION_DDOT = 0

CCSDS_OMM_VERS = 2.0
CREATION_DATE  = 
ORIGINATOR     = 

OBJECT_NAME    = COSMOS 2278
OBJECT_ID      = 1994-023A
CENTER_NAME    = EARTH
REF_FRAME      = TEME
TIME_SYSTEM    = UTC
MEAN_ELEMENT_THEORY = SGP/SGP4

EPOCH          = 2026-03-11T17:15:57.801600
MEAN_MOTION    = 14.14379421
ECCENTRICITY   = .00081814
INCLINATION    = 71.0553
RA_OF_ASC_NODE = 170.8514
ARG_OF_PERICENTER = 9.1686
MEAN_ANOMALY   = 350.9585

EPHEMERIS_TYPE = 0
CLASSIFICATION_TYPE = U
NORAD_CAT_ID   = 23087
ELEMENT_SET_NO = 999
REV_AT_EPOCH   = 64509
BSTAR          = .4115368E-4
MEAN_MOTION_DOT = .32E-6
MEAN_MOTION_DDOT = 0

CCSDS_OMM_VERS = 2.0
CREATION_DATE  = 
ORIGINATOR     = 

OBJECT_NAME    = SL-16 R/B
OBJECT_ID      = 1994-023B
CENTER_NAME    = EARTH
REF_FRAME      = TEME
TIME_SYSTEM    = UTC
MEAN_ELEMENT_THEORY = SGP/SGP4

EPOCH          = 2026-03-12T04:32:20.209056
MEAN_MOTION    = 14.15010986
ECCENTRICITY   = .0005696
INCLINATION    = 70.9985
RA_OF_ASC_NODE = 65.6373
ARG_OF_PERICENTER = 283.1836
MEAN_ANOMALY   = 76.8650

EPHEMERIS_TYPE = 0
CLASSIFICATION_TYPE = U
NORAD_CAT_ID   = 23088
ELEMENT_SET_NO = 999
REV_AT_EPOCH   = 64644
BSTAR          = -.88961E-4
MEAN_MOTION_DOT = -.22E-5
MEAN_MOTION_DDOT = 0

CCSDS_OMM_VERS = 2.0
CREATION_DATE  = 
ORIGINATOR     = 

OBJECT_NAME    = SL-16 R/B
OBJECT_ID      = 1994-074B
CENTER_NAME    = EARTH
REF_FRAME      = TEME
TIME_SYSTEM    = UTC
MEAN_ELEMENT_THEORY = SGP/SGP4

EPOCH          = 2026-03-12T02:14:18.665376
MEAN_MOTION    = 14.79410841
ECCENTRICITY   = .0005986
INCLINATION    = 97.7107
RA_OF_ASC_NODE = 101.8136
ARG_OF_PERICENTER = 201.6293
MEAN_ANOMALY   = 220.7848

EPHEMERIS_TYPE = 0
CLASSIFICATION_TYPE = U
NORAD_CAT_ID   = 23343
ELEMENT_SET_NO = 999
REV_AT_EPOCH   = 68760
BSTAR          = .76484E-4
MEAN_MOTION_DOT = .521E-5
MEAN_MOTION_DDOT = 0

CCSDS_OMM_VERS = 2.0
CREATION_DATE  = 
ORIGINATOR     = 

OBJECT_NAME    = SL-16 R/B
OBJECT_ID      = 1994-077B
CENTER_NAME    = EARTH
REF_FRAME      = TEME
TIME_SYSTEM    = UTC
MEAN_ELEMENT_THEORY = SGP/SGP4

EPOCH          = 2026-03-12T04:04:29.138016
MEAN_MOTION    = 14.15561637
ECCENTRICITY   = .0002954
INCLINATION    = 70.9853
RA_OF_ASC_NODE = 347.2721
ARG_OF_PERICENTER = 208.8129
MEAN_ANOMALY   = 151.2831

EPHEMERIS_TYPE = 0
CLASSIFICATION_TYPE = U
NORAD_CAT_ID   = 23405
ELEMENT_SET_NO = 999
REV_AT_EPOCH   = 61658
BSTAR          = .78284E-4
MEAN_MOTION_DOT = .105E-5
MEAN_MOTION_DDOT = 0

CCSDS_OMM_VERS = 2.0
CREATION_DATE  = 
ORIGINATOR     = 

OBJECT_NAME    = ARIANE 40+ R/B
OBJECT_ID      = 1995-021B
CENTER_NAME    = EARTH
REF_FRAME      = TEME
TIME_SYSTEM    = UTC
MEAN_ELEMENT_THEORY = SGP/SGP4

EPOCH          = 2026-03-12T04:16:54.384672
MEAN_MOTION    = 14.39774598
ECCENTRICITY   = .0007714
INCLINATION    = 98.4492
RA_OF_ASC_NODE = 142.6271
ARG_OF_PERICENTER = 129.9656
MEAN_ANOMALY   = 284.6570

EPHEMERIS_TYPE = 0
CLASSIFICATION_TYPE = U
NORAD_CAT_ID   = 23561
ELEMENT_SET_NO = 999
REV_AT_EPOCH   = 61960
BSTAR          = .12742E-3
MEAN_MOTION_DOT = .356E-5
MEAN_MOTION_DDOT = 0

CCSDS_OMM_VERS = 2.0
CREATION_DATE  = 
ORIGINATOR     = 

OBJECT_NAME    = SL-16 R/B
OBJECT_ID      = 1995-058B
CENTER_NAME    = EARTH
REF_FRAME      = TEME
TIME_SYSTEM    = UTC
MEAN_ELEMENT_THEORY = SGP/SGP4

EPOCH          = 2026-03-11T14:40:38.481600
MEAN_MOTION    = 14.15496639
ECCENTRICITY   = .00107028
INCLINATION    = 71.0223
RA_OF_ASC_NODE = 176.2205
ARG_OF_PERICENTER = 122.2935
MEAN_ANOMALY   = 237.9226

EPHEMERIS_TYPE = 0
CLASSIFICATION_TYPE = U
NORAD_CAT_ID   = 23705
ELEMENT_SET_NO = 999
REV_AT_EPOCH   = 56812
BSTAR          = .19436613E-3
MEAN_MOTION_DOT = .333E-5
MEAN_MOTION_DDOT = 0

CCSDS_OMM_VERS = 2.0
CREATION_DATE  = 
ORIGINATOR     = 

OBJECT_NAME    = SL-16 R/B
OBJECT_ID      = 1996-051B
CENTER_NAME    = EARTH
REF_FRAME      = TEME
TIME_SYSTEM    = UTC
MEAN_ELEMENT_THEORY = SGP/SGP4

EPOCH          = 2026-03-12T00:10:35.337216
MEAN_MOTION    = 14.12416278
ECCENTRICITY   = .001488
INCLINATION    = 70.7604
RA_OF_ASC_NODE = 170.3334
ARG_OF_PERICENTER = 144.5023
MEAN_ANOMALY   = 215.7090

EPHEMERIS_TYPE = 0
CLASSIFICATION_TYPE = U
NORAD_CAT_ID   = 24298
ELEMENT_SET_NO = 999
REV_AT_EPOCH   = 52197
BSTAR          = .69302E-4
MEAN_MOTION_DOT = .79E-6
MEAN_MOTION_DDOT = 0

CCSDS_OMM_VERS = 2.0
CREATION_DATE  = 
ORIGINATOR     = 

OBJECT_NAME    = ORBVIEW 2 (SEASTAR)
OBJECT_ID      = 1997-037A
CENTER_NAME    = EARTH
REF_FRAME      = TEME
TIME_SYSTEM    = UTC
MEAN_ELEMENT_THEORY = SGP/SGP4

EPOCH          = 2026-03-12T01:35:51.473472
MEAN_MOTION    = 14.35496758
ECCENTRICITY   = .0003039
INCLINATION    = 98.8571
RA_OF_ASC_NODE = 235.4414
ARG_OF_PERICENTER = 67.2308
MEAN_ANOMALY   = 292.9197

EPHEMERIS_TYPE = 0
CLASSIFICATION_TYPE = U
NORAD_CAT_ID   = 24883
ELEMENT_SET_NO = 999
REV_AT_EPOCH   = 50881
BSTAR          = .13096E-3
MEAN_MOTION_DOT = .33E-5
MEAN_MOTION_DDOT = 0

CCSDS_OMM_VERS = 2.0
CREATION_DATE  = 
ORIGINATOR     = 

OBJECT_NAME    = SL-16 R/B
OBJECT_ID      = 1998-043G
CENTER_NAME    = EARTH
REF_FRAME      = TEME
TIME_SYSTEM    = UTC
MEAN_ELEMENT_THEORY = SGP/SGP4

EPOCH          = 2026-03-12T02:48:41.882688
MEAN_MOTION    = 14.26050384
ECCENTRICITY   = .0010095
INCLINATION    = 98.8256
RA_OF_ASC_NODE = 24.4977
ARG_OF_PERICENTER = 13.7029
MEAN_ANOMALY   = 346.4423

EPHEMERIS_TYPE = 0
CLASSIFICATION_TYPE = U
NORAD_CAT_ID   = 25400
ELEMENT_SET_NO = 999
REV_AT_EPOCH   = 43933
BSTAR          = .50452E-4
MEAN_MOTION_DOT = .75E-6
MEAN_MOTION_DDOT = 0

