COSMOS 2242             
1 22626U 93024A   26071.04294597  .00001734  00000+0  14986-3 0  9997
2 22626  82.5156 264.4650 0015061 300.3132  59.6600 14.96558951780744
SL-16 R/B               
1 22803U 93059B   26071.15899103 -.00000080  00000+0 -15903-4 0  9994
2 22803  70.9928   5.9189 0018407 212.9942 147.0035 14.17231315679889
ARIANE 40 R/B           
1 22830U 93061H   26071.14264009  .00000249  00000+0  10704-3 0  9995
2 22830  98.4910 139.9818 0009573 276.9829  83.0267 14.32862525694456
COSMOS 2278             
1 23087U 94023A   26070.71941900  .00000032  00000+0  41154-4 0  9997
2 23087  71.0553 170.8514 0008181   9.1686 350.9585 14.14379421645092
SL-16 R/B               
1 23088U 94023B   26071.18912279 -.00000220  00000+0 -88961-4 0  9995
2 23088  70.9985  65.6373 0005696 283.1836  76.8650 14.15010986646449
SL-16 R/B               
1 23343U 94074B   26071.09327159  .00000521  00000+0  76484-4 0  9991
2 23343  97.7107 101.8136 0005986 201.6293 220.7848 14.79410841687606
SL-16 R/B               
1 23405U 94077B   26071.16978169  .00000105  00000+0  78284-4 0  9992
2 23405  70.9853 347.2721 0002954 208.8129 151.2831 14.15561637616580
ARIANE 40+ R/B          
1 23561U 95021B   26071.17840723  .00000356  00000+0  12742-3 0  9994
2 23561  98.4492 142.6271 0007714 129.9656 284.6570 14.39774598619606
SL-16 R/B               
1 23705U 95058B   26070.61155650  .00000333  00000+0  19437-3 0  9993
2 23705  71.0223 176.2205 0010702 122.2935 237.9226 14.15496639568122
SL-16 R/B               
1 24298U 96051B   26071.00735344  .00000079  00000+0  69302-4 0  9997
2 24298  70.7604 170.3334 0014880 144.5023 215.7090 14.12416278521976
ORBVIEW 2 (SEASTAR)     
1 24883U 97037A   26071.06656798  .00000330  00000+0  13096-3 0  9991
2 24883  98.8571 235.4414 0003039  67.2308 292.9197 14.35496758508812
SL-16 R/B               
1 25400U 98043G   26071.11715142  .00000075  00000+0  50452-4 0  9994
2 25400  98.8256  24.4977 0010095  13.7029 346.4423 14.26050384439332
